{"type": "FeatureCollection", "features": [ {"type": "Feature", "properties": {"norad_id": 66660, "name": "K-HERO", "group": "last-30-days", "lat": 58.036952714776916, "lon": 110.72307002573974, "alt_km": 590.1101691012427, "timestamp": "2025-12-16T23:36:34.923949+00:00", "meta": {"OBJECT_NAME": "K-HERO", "OBJECT_ID": "2025-274L", "EPOCH": "2025-12-16T06:58:59.650752", "MEAN_MOTION": 14.9298249, "ECCENTRICITY": 0.00124795, "INCLINATION": 97.7397, "RA_OF_ASC_NODE": 277.4522, "ARG_OF_PERICENTER": 267.622, "MEAN_ANOMALY": 92.3571, "EPHEMERIS_TYPE": 0, "CLASSIFICATION_TYPE": "U", "NORAD_CAT_ID": 66660, "ELEMENT_SET_NO": 999, "REV_AT_EPOCH": 293, "BSTAR": 0.00028077865, "MEAN_MOTION_DOT": 2.865e-05, "MEAN_MOTION_DDOT": 0}, "tle": {"line1": "1 66660U 25274L   25350.29096818  .00002865  00000+0  28078-3 0  9990", "line2": "2 66660  97.7397 277.4522 0012479 267.6220  92.3571 14.92982490  2934"}}, "geometry": {"type": "Point", "coordinates": [110.72307002573974, 58.036952714776916]}}, {"type": "Feature", "properties": {"norad_id": 66661, "name": "SNUGLITE-III", "group": "last-30-days", "lat": 47.63408676928834, "lon": 106.71333153417254, "alt_km": 590.4445913850668, "timestamp": "2025-12-16T23:36:34.923961+00:00", "meta": {"OBJECT_NAME": "SNUGLITE-III", "OBJECT_ID": "2025-274M", "EPOCH": "2025-12-16T06:56:13.132896", "MEAN_MOTION": 14.93117787, "ECCENTRICITY": 0.00131066, "INCLINATION": 97.7397, "RA_OF_ASC_NODE": 277.4539, "ARG_OF_PERICENTER": 268.9233, "MEAN_ANOMALY": 91.0485, "EPHEMERIS_TYPE": 0, "CLASSIFICATION_TYPE": "U", "NORAD_CAT_ID": 66661, "ELEMENT_SET_NO": 999, "REV_AT_EPOCH": 293, "BSTAR": 0.0002433227, "MEAN_MOTION_DOT": 2.484e-05, "MEAN_MOTION_DDOT": 0}, "tle": {"line1": "1 66661U 25274M   25350.28904089  .00002484  00000+0  24332-3 0  9994", "line2": "2 66661  97.7397 277.4539 0013106 268.9233  91.0485 14.93117787  2939"}}, "geometry": {"type": "Point", "coordinates": [106.71333153417254, 47.63408676928834]}}, {"type": "Feature", "properties": {"norad_id": 66662, "name": "2025-274N", "group": "last-30-days", "lat": 43.53567730680681, "lon": 105.56427943207298, "alt_km": 590.5303281830093, "timestamp": "2025-12-16T23:36:34.923975+00:00", "meta": {"OBJECT_NAME": "2025-274N", "OBJECT_ID": "2025-274N", "EPOCH": "2025-12-16T06:55:07.968288", "MEAN_MOTION": 14.93171896, "ECCENTRICITY": 0.00135382, "INCLINATION": 97.7398, "RA_OF_ASC_NODE": 277.4552, "ARG_OF_PERICENTER": 268.5048, "MEAN_ANOMALY": 91.4621, "EPHEMERIS_TYPE": 0, "CLASSIFICATION_TYPE": "U", "NORAD_CAT_ID": 66662, "ELEMENT_SET_NO": 999, "REV_AT_EPOCH": 293, "BSTAR": 0.00025817763, "MEAN_MOTION_DOT": 2.643e-05, "MEAN_MOTION_DDOT": 0}, "tle": {"line1": "1 66662U 25274N   25350.28828667  .00002643  00000+0  25818-3 0  9999", "line2": "2 66662  97.7398 277.4552 0013538 268.5048  91.4621 14.93171896  2932"}}, "geometry": {"type": "Point", "coordinates": [105.56427943207298, 43.53567730680681]}}, {"type": "Feature", "properties": {"norad_id": 66663, "name": "KSLV-II R/B", "group": "last-30-days", "lat": 79.17476338569581, "lon": -127.06251934657277, "alt_km": 594.6972494291686, "timestamp": "2025-12-16T23:36:34.923986+00:00", "meta": {"OBJECT_NAME": "KSLV-II R/B", "OBJECT_ID": "2025-274P", "EPOCH": "2025-12-15T07:08:48.551424", "MEAN_MOTION": 14.97331425, "ECCENTRICITY": 0.00530659, "INCLINATION": 97.741, "RA_OF_ASC_NODE": 276.6145, "ARG_OF_PERICENTER": 310.9589, "MEAN_ANOMALY": 48.7046, "EPHEMERIS_TYPE": 0, "CLASSIFICATION_TYPE": "U", "NORAD_CAT_ID": 66663, "ELEMENT_SET_NO": 999, "REV_AT_EPOCH": 279, "BSTAR": 0.00035715479, "MEAN_MOTION_DOT": 4.203e-05, "MEAN_MOTION_DDOT": 0}, "tle": {"line1": "1 66663U 25274P   25349.29778416  .00004203  00000+0  35715-3 0  9996", "line2": "2 66663  97.7410 276.6145 0053065 310.9589  48.7046 14.97331425  2798"}}, "geometry": {"type": "Point", "coordinates": [-127.06251934657277, 79.17476338569581]}}, {"type": "Feature", "properties": {"norad_id": 66664, "name": "SOYUZ-MS 28", "group": "last-30-days", "lat": -30.37139018571769, "lon": 93.79563435857524, "alt_km": 420.4664500203371, "timestamp": "2025-12-16T23:36:34.924003+00:00", "meta": {"OBJECT_NAME": "SOYUZ-MS 28", "OBJECT_ID": "2025-275A", "EPOCH": "2025-12-16T02:06:50.626944", "MEAN_MOTION": 15.49613604, "ECCENTRICITY": 0.00031739, "INCLINATION": 51.6306, "RA_OF_ASC_NODE": 125.8981, "ARG_OF_PERICENTER": 255.6781, "MEAN_ANOMALY": 104.3856, "EPHEMERIS_TYPE": 0, "CLASSIFICATION_TYPE": "U", "NORAD_CAT_ID": 66664, "ELEMENT_SET_NO": 999, "REV_AT_EPOCH": 128, "BSTAR": 0.00012170727, "MEAN_MOTION_DOT": 6.404e-05, "MEAN_MOTION_DDOT": 0}, "tle": {"line1": "1 66664U 25275A   25350.08808596  .00006404  00000+0  12171-3 0  9996", "line2": "2 66664  51.6306 125.8981 0003173 255.6781 104.3856 15.49613604  1280"}}, "geometry": {"type": "Point", "coordinates": [93.79563435857524, -30.37139018571769]}}, {"type": "Feature", "properties": {"norad_id": 66791, "name": "STARLINK-35867", "group": "last-30-days", "lat": 42.72624585250847, "lon": -36.266401034231954, "alt_km": 336.93770888325616, "timestamp": "2025-12-16T23:36:34.924014+00:00", "meta": {"OBJECT_NAME": "STARLINK-35867", "OBJECT_ID": "2025-278A", "EPOCH": "2025-12-16T06:00:02.999808", "MEAN_MOTION": 15.77801904, "ECCENTRICITY": 0.0001836, "INCLINATION": 42.9982, "RA_OF_ASC_NODE": 230.6126, "ARG_OF_PERICENTER": 276.168, "MEAN_ANOMALY": 329.3783, "EPHEMERIS_TYPE": 0, "CLASSIFICATION_TYPE": "U", "NORAD_CAT_ID": 66791, "ELEMENT_SET_NO": 999, "REV_AT_EPOCH": 352, "BSTAR": -0.0079491106, "MEAN_MOTION_DOT": -0.01222142, "MEAN_MOTION_DDOT": 0}, "tle": {"line1": "1 66791U 25278A   25350.25003472 -.01222142  00000+0 -79491-2 0  9998", "line2": "2 66791  42.9982 230.6126 0001836 276.1680 329.3783 15.77801904  3520"}}, "geometry": {"type": "Point", "coordinates": [-36.266401034231954, 42.72624585250847]}}, {"type": "Feature", "properties": {"norad_id": 66792, "name": "STARLINK-35990", "group": "last-30-days", "lat": 42.52404959638049, "lon": -33.67996496022839, "alt_km": 336.88314489970617, "timestamp": "2025-12-16T23:36:34.924025+00:00", "meta": {"OBJECT_NAME": "STARLINK-35990", "OBJECT_ID": "2025-278B", "EPOCH": "2025-12-16T06:00:02.999808", "MEAN_MOTION": 15.77808955, "ECCENTRICITY": 0.00017255, "INCLINATION": 42.9978, "RA_OF_ASC_NODE": 230.6077, "ARG_OF_PERICENTER": 273.5233, "MEAN_ANOMALY": 333.921, "EPHEMERIS_TYPE": 0, "CLASSIFICATION_TYPE": "U", "NORAD_CAT_ID": 66792, "ELEMENT_SET_NO": 999, "REV_AT_EPOCH": 352, "BSTAR": -0.0079461057, "MEAN_MOTION_DOT": -0.01222017, "MEAN_MOTION_DDOT": 0}, "tle": {"line1": "1 66792U 25278B   25350.25003472 -.01222017  00000+0 -79461-2 0  9997", "line2": "2 66792  42.9978 230.6077 0001725 273.5233 333.9210 15.77808955  3522"}}, "geometry": {"type": "Point", "coordinates": [-33.67996496022839, 42.52404959638049]}}, {"type": "Feature", "properties": {"norad_id": 66793, "name": "STARLINK-36051", "group": "last-30-days", "lat": 41.914542077556305, "lon": -28.32660758167436, "alt_km": 337.45440431820134, "timestamp": "2025-12-16T23:36:34.924035+00:00", "meta": {"OBJECT_NAME": "STARLINK-36051", "OBJECT_ID": "2025-278C", "EPOCH": "2025-12-16T06:00:02.999808", "MEAN_MOTION": 15.77672729, "ECCENTRICITY": 0.00017174, "INCLINATION": 42.998, "RA_OF_ASC_NODE": 230.5966, "ARG_OF_PERICENTER": 268.5855, "MEAN_ANOMALY": 343.2829, "EPHEMERIS_TYPE": 0, "CLASSIFICATION_TYPE": "U", "NORAD_CAT_ID": 66793, "ELEMENT_SET_NO": 999, "REV_AT_EPOCH": 342, "BSTAR": -0.0081422124, "MEAN_MOTION_DOT": -0.01241831, "MEAN_MOTION_DDOT": 0}, "tle": {"line1": "1 66793U 25278C   25350.25003472 -.01241831  00000+0 -81422-2 0  9993", "line2": "2 66793  42.9980 230.5966 0001717 268.5855 343.2829 15.77672729  3424"}}, "geometry": {"type": "Point", "coordinates": [-28.32660758167436, 41.914542077556305]}}, {"type": "Feature", "properties": {"norad_id": 66794, "name": "STARLINK-36062", "group": "last-30-days", "lat": 42.2447573318149, "lon": -30.93739049481131, "alt_km": 337.34844860884823, "timestamp": "2025-12-16T23:36:34.924045+00:00", "meta": {"OBJECT_NAME": "STARLINK-36062", "OBJECT_ID": "2025-278D", "EPOCH": "2025-12-16T06:00:02.999808", "MEAN_MOTION": 15.77711266, "ECCENTRICITY": 0.00018508, "INCLINATION": 42.9982, "RA_OF_ASC_NODE": 230.6015, "ARG_OF_PERICENTER": 272.7588, "MEAN_ANOMALY": 337.0165, "EPHEMERIS_TYPE": 0, "CLASSIFICATION_TYPE": "U", "NORAD_CAT_ID": 66794, "ELEMENT_SET_NO": 999, "REV_AT_EPOCH": 352, "BSTAR": -0.0080589165, "MEAN_MOTION_DOT": -0.0123258, "MEAN_MOTION_DDOT": 0}, "tle": {"line1": "1 66794U 25278D   25350.25003472 -.01232580  00000+0 -80589-2 0  9998", "line2": "2 66794  42.9982 230.6015 0001850 272.7588 337.0165 15.77711266  3526"}}, "geometry": {"type": "Point", "coordinates": [-30.93739049481131, 42.2447573318149]}}, {"type": "Feature", "properties": {"norad_id": 66795, "name": "STARLINK-36047", "group": "last-30-days", "lat": 41.51755352185775, "lon": -25.69360834035024, "alt_km": 337.8317360948704, "timestamp": "2025-12-16T23:36:34.924058+00:00", "meta": {"OBJECT_NAME": "STARLINK-36047", "OBJECT_ID": "2025-278E", "EPOCH": "2025-12-16T06:00:02.999808", "MEAN_MOTION": 15.77590405, "ECCENTRICITY": 0.00017623, "INCLINATION": 42.9982, "RA_OF_ASC_NODE": 230.5908, "ARG_OF_PERICENTER": 270.9349, "MEAN_ANOMALY": 343.1796, "EPHEMERIS_TYPE": 0, "CLASSIFICATION_TYPE": "U", "NORAD_CAT_ID": 66795, "ELEMENT_SET_NO": 999, "REV_AT_EPOCH": 342, "BSTAR": -0.0082425651, "MEAN_MOTION_DOT": -0.01251225, "MEAN_MOTION_DDOT": 0}, "tle": {"line1": "1 66795U 25278E   25350.25003472 -.01251225  00000+0 -82426-2 0  9998", "line2": "2 66795  42.9982 230.5908 0001762 270.9349 343.1796 15.77590405  3421"}}, "geometry": {"type": "Point", "coordinates": [-25.69360834035024, 41.51755352185775]}}]}